[{"OBJECT_NAME":"STARLINK-3234","OBJECT_ID":"2022-001N","EPOCH":"2026-03-09T12:26:56.842080","MEAN_MOTION":15.0884768,"ECCENTRICITY":9.697e-5,"INCLINATION":53.2184,"RA_OF_ASC_NODE":169.89,"ARG_OF_PERICENTER":93.6087,"MEAN_ANOMALY":266.5016,"EPHEMERIS_TYPE":0,"CLASSIFICATION_TYPE":"U","NORAD_CAT_ID":50815,"ELEMENT_SET_NO":999,"REV_AT_EPOCH":23038,"BSTAR":0.00017818234,"MEAN_MOTION_DOT":2.55e-5,"MEAN_MOTION_DDOT":0},{"OBJECT_NAME":"OBJECT C","OBJECT_ID":"2025-013C","EPOCH":"2026-03-09T23:45:12.010176","MEAN_MOTION":15.10546453,"ECCENTRICITY":0.00141064,"INCLINATION":97.6424,"RA_OF_ASC_NODE":238.1264,"ARG_OF_PERICENTER":358.7826,"MEAN_ANOMALY":1.3366,"EPHEMERIS_TYPE":0,"CLASSIFICATION_TYPE":"U","NORAD_CAT_ID":62731,"ELEMENT_SET_NO":999,"REV_AT_EPOCH":6235,"BSTAR":0.00030324361,"MEAN_MOTION_DOT":4.947e-5,"MEAN_MOTION_DDOT":0}]
